[{"OBJECT_NAME":"COSMOS 2600","OBJECT_ID":"2026-023A","EPOCH":"2026-03-09T21:41:44.475936","MEAN_MOTION":15.82848378,"ECCENTRICITY":0.00022609,"INCLINATION":96.6418,"RA_OF_ASC_NODE":144.5407,"ARG_OF_PERICENTER":75.1803,"MEAN_ANOMALY":284.9719,"EPHEMERIS_TYPE":0,"CLASSIFICATION_TYPE":"U","NORAD_CAT_ID":67674,"ELEMENT_SET_NO":999,"REV_AT_EPOCH":508,"BSTAR":0.00037319404,"MEAN_MOTION_DOT":0.00079082,"MEAN_MOTION_DDOT":0},{"OBJECT_NAME":"STARLINK-36762","OBJECT_ID":"2026-034U","EPOCH":"2026-03-09T18:45:08.567424","MEAN_MOTION":15.80966263,"ECCENTRICITY":4.495e-5,"INCLINATION":53.1592,"RA_OF_ASC_NODE":210.7366,"ARG_OF_PERICENTER":121.8396,"MEAN_ANOMALY":238.267,"EPHEMERIS_TYPE":0,"CLASSIFICATION_TYPE":"U","NORAD_CAT_ID":67868,"ELEMENT_SET_NO":999,"REV_AT_EPOCH":395,"BSTAR":0.001354999,"MEAN_MOTION_DOT":0.00276677,"MEAN_MOTION_DDOT":0}]
